OBJECT_NAME,OBJECT_ID,EPOCH,MEAN_MOTION,ECCENTRICITY,INCLINATION,RA_OF_ASC_NODE,ARG_OF_PERICENTER,MEAN_ANOMALY,EPHEMERIS_TYPE,CLASSIFICATION_TYPE,NORAD_CAT_ID,ELEMENT_SET_NO,REV_AT_EPOCH,BSTAR,MEAN_MOTION_DOT,MEAN_MOTION_DDOT
SAUDISAT 2,2004-025F,2026-07-01T10:53:17.264256,14.56692065,.00234897,98.5510,182.8044,252.0930,107.7706,0,U,28371,999,16782,.75503697E-4,.288E-5,0
COSMOS 2407,2004-028A,2026-07-01T09:50:44.169216,13.76335730,.0038394,82.9598,64.2997,210.9480,323.0306,0,U,28380,999,10183,.49782796E-4,.64E-6,0
COSMOS 2414,2005-002A,2026-07-01T07:20:49.104096,13.87927287,.00387717,82.9489,32.9648,289.9380,69.7608,0,U,28521,999,8577,.300235E-4,.51E-6,0
INMARSAT 4-F1,2005-009A,2026-07-01T14:08:52.392192,1.00271708,.00029743,5.1861,42.7721,59.1626,208.0374,0,U,28628,999,7781,0,.4E-6,0
SJ-7,2005-024A,2026-07-01T08:39:13.833792,15.21756200,.00148104,97.7271,212.8463,349.0702,11.0209,0,U,28737,999,15018,.4691986E-3,.106E-3,0
CUBESAT XI-V,2005-043F,2026-06-30T09:07:31.727712,14.72666866,.00145552,98.2997,337.2799,159.1785,201.0018,0,U,28895,999,10369,.23930319E-3,.1474E-4,0
HINODE (SOLAR-B),2006-041A,2026-07-01T11:49:53.913504,14.68642525,.00161445,98.0543,198.4345,240.2562,119.7037,0,U,29479,999,5697,.13909562E-3,.761E-5,0
SHIJIAN-6 02B (SJ-6 02B),2006-046B,2026-07-01T14:36:26.192736,15.01411517,.0015051,97.7150,211.5782,19.2877,340.8914,0,U,29506,999,7290,.1036987E-3,.128E-4,0
DMSP 5D-3 F17 (USA 191),2006-050A,2026-07-01T14:16:29.921664,14.14994806,.00105473,98.7380,188.8701,21.3205,338.8406,0,U,29522,999,1446,.27372388E-4,.1E-6,0
LAPAN-TUBSAT,2007-001A,2026-07-01T14:20:06.186912,14.85962250,.00129719,98.1338,182.1465,133.7974,226.4315,0,U,29709,999,5329,.1925393E-5,-.41E-6,0
HAIYANG-1B,2007-010A,2026-07-01T11:28:56.705376,14.31030446,.00139586,98.3502,163.7697,154.0785,206.1100,0,U,31113,999,268,.51869037E-4,.95E-6,0
COSMO-SKYMED 2,2007-059A,2026-07-01T14:35:56.663808,14.82157239,.00013337,97.8889,5.9971,89.8591,270.2775,0,U,32376,999,414,.5947355E-4,.421E-5,0
CARTOSAT-2A,2008-021A,2026-07-01T14:09:19.313568,14.79261149,.00132793,97.7626,230.8067,67.0949,293.1663,0,U,32783,999,98093,.13132526E-3,.927E-5,0
CUTE-1.7+APD II (CO-65),2008-021C,2026-07-01T15:11:51.852192,15.09589272,.00082463,97.8279,164.3537,351.3576,8.7509,0,U,32785,999,98737,.41133627E-3,.6548E-4,0
SEEDS II (CO-66),2008-021J,2026-07-01T11:54:06.457248,15.33239854,.00013068,97.7518,181.0814,190.4389,169.6825,0,U,32791,999,98948,.67899152E-3,.21762E-3,0
YUBILEINY (RS30),2008-025A,2026-07-01T14:01:41.891232,12.43180063,.00185029,82.5042,346.4825,280.5899,79.3096,0,U,32953,999,82148,-.21248986E-3,-.2E-6,0
FENGYUN 3A,2008-026A,2026-07-01T10:13:23.085696,14.19574022,.00098827,98.6885,122.9929,87.0903,273.1404,0,U,32958,999,93742,.56164126E-4,.75E-6,0
HUANJING 1A (HJ-1A),2008-041A,2026-07-01T14:17:46.389984,14.84021135,.00207068,97.6683,167.8773,90.6880,269.6708,0,U,33320,999,96054,.198804E-3,.161E-4,0
HUANJING 1B (HJ-1B),2008-041B,2026-07-01T15:19:51.609792,14.83339497,.00373027,97.6519,171.0465,134.0426,226.3872,0,U,33321,999,96055,.45136334E-4,.322E-5,0
SHIJIAN-6 03A (SJ-6 03A),2008-053A,2026-07-01T14:58:34.497696,15.17307458,.00102984,97.8399,216.4474,330.2124,29.8521,0,U,33408,999,96515,.4308319E-3,.853E-4,0
SHIJIAN-6 03B (SJ-6 03B),2008-053B,2026-07-01T14:24:34.851168,15.04348923,.00193027,97.8564,202.7297,356.4192,3.6892,0,U,33409,999,96491,.15757802E-3,.214E-4,0
